[{"OBJECT_NAME":"IRIDIUM 118","OBJECT_ID":"2017-039E","EPOCH":"2026-03-09T21:26:30.895296","MEAN_MOTION":14.34218754,"ECCENTRICITY":0.00022329,"INCLINATION":86.3973,"RA_OF_ASC_NODE":35.1169,"ARG_OF_PERICENTER":84.727,"MEAN_ANOMALY":275.4181,"EPHEMERIS_TYPE":0,"CLASSIFICATION_TYPE":"U","NORAD_CAT_ID":42807,"ELEMENT_SET_NO":999,"REV_AT_EPOCH":45571,"BSTAR":0.00012914778,"MEAN_MOTION_DOT":3.81e-6,"MEAN_MOTION_DDOT":0},{"OBJECT_NAME":"OPS 4078 (DMSP 4B F2)","OBJECT_ID":"1968-092A","EPOCH":"2026-03-09T21:16:17.407776","MEAN_MOTION":14.28218921,"ECCENTRICITY":0.00286708,"INCLINATION":98.5563,"RA_OF_ASC_NODE":193.3095,"ARG_OF_PERICENTER":258.2617,"MEAN_ANOMALY":101.5347,"EPHEMERIS_TYPE":0,"CLASSIFICATION_TYPE":"U","NORAD_CAT_ID":3510,"ELEMENT_SET_NO":999,"REV_AT_EPOCH":98307,"BSTAR":9.5982727e-5,"MEAN_MOTION_DOT":1.97e-6,"MEAN_MOTION_DDOT":0}]
